H1 CPF 01  gfz 2021 10 18 00  7911 tandemx   
H2 1003001  6202 36605    2021 10 18 00 59 42 2021 10 23 00 00 42   120 1 1  0 0 0
H9
10 0 59508  25902.000000  0    6114342.289  -2243447.378  -2255694.800
10 0 59508  26022.000000  0    5721881.871  -2289740.673  -3087726.687
10 0 59508  26142.000000  0    5229339.851  -2288396.506  -3865582.280
10 0 59508  26262.000000  0    4646240.965  -2237811.925  -4575684.040
10 0 59508  26382.000000  0    3983687.913  -2137421.596  -5205671.634
10 0 59508  26502.000000  0    3254139.370  -1987728.637  -5744610.405
10 0 59508  26622.000000  0    2471168.650  -1790312.982  -6183170.384
10 0 59508  26742.000000  0    1649208.799  -1547817.778  -6513777.526
10 0 59508  26862.000000  0     803285.167  -1263913.895  -6730734.278
10 0 59508  26982.000000  0     -51256.725   -943244.274  -6830307.102
10 0 59508  27102.000000  0    -899024.258   -591348.675  -6810783.330
10 0 59508  27222.000000  0   -1724848.236   -214570.130  -6672497.599
10 0 59508  27342.000000  0   -2514048.358    180056.814  -6417826.143
10 0 59508  27462.000000  0   -3252687.900    584933.261  -6051149.818
10 0 59508  27582.000000  0   -3927816.023    992037.692  -5578787.872
10 0 59508  27702.000000  0   -4527695.792   1393079.887  -5008899.961
10 0 59508  27822.000000  0   -5042012.489   1779665.619  -4351357.707
10 0 59508  27942.000000  0   -5462058.950   2143469.803  -3617584.114
10 0 59508  28062.000000  0   -5780892.185   2476412.259  -2820363.787
10 0 59508  28182.000000  0   -5993459.624   2770833.885  -1973626.388
10 0 59508  28302.000000  0   -6096690.398   3019669.112  -1092205.268
10 0 59508  28422.000000  0   -6089548.454   3216610.452   -191575.562
10 0 59508  28542.000000  0   -5973045.535   3356260.079    712423.523
10 0 59508  28662.000000  0   -5750211.609   3434263.949   1603876.213
10 0 59508  28782.000000  0   -5426023.879   3447425.780   2467079.428
10 0 59508  28902.000000  0   -5007296.812   3393797.204   3286827.788
10 0 59508  29022.000000  0   -4502536.375   3272741.960   4048688.926
10 0 59508  29142.000000  0   -3921761.140   3084972.097   4739262.500
10 0 59508  29262.000000  0   -3276296.817   2832556.198   5346416.654
10 0 59508  29382.000000  0   -2578548.650   2518900.709   5859500.709
10 0 59508  29502.000000  0   -1841755.873   2148703.304   6269528.356
10 0 59508  29622.000000  0   -1079734.879   1727879.909   6569329.362
10 0 59508  29742.000000  0    -306617.253   1263467.641   6753667.184
10 0 59508  29862.000000  0     463411.934    763505.230   6819324.840
10 0 59508  29982.000000  0    1216373.876    236893.382   6765157.294
10 0 59508  30102.000000  0    1938748.557   -306763.012   6592110.077
10 0 59508  30222.000000  0    2617716.700   -857329.489   6303204.579
10 0 59508  30342.000000  0    3241387.829  -1404330.088   5903489.251
10 0 59508  30462.000000  0    3799011.712  -1937146.215   5399957.008
10 0 59508  30582.000000  0    4281167.691  -2445222.964   4801427.877
10 0 59508  30702.000000  0    4679929.079  -2918278.977   4118400.690
10 0 59508  30822.000000  0    4989000.689  -3346517.141   3362873.712
10 0 59508  30942.000000  0    5203825.492  -3720829.827   2548134.792
10 0 59508  31062.000000  0    5321655.957  -4032993.622   1688525.298
10 0 59508  31182.000000  0    5341588.888  -4275850.061    799183.682
10 0 59508  31302.000000  0    5264563.725  -4443466.729   -104227.731
10 0 59508  31422.000000  0    5093323.532  -4531275.298  -1005806.785
10 0 59508  31542.000000  0    4832339.034  -4536181.708  -1889700.581
10 0 59508  31662.000000  0    4487697.991  -4456646.237  -2740392.258
10 0 59508  31782.000000  0    4066963.229  -4292731.628  -3542978.881
10 0 59508  31902.000000  0    3579003.514  -4046118.586  -4283435.166
10 0 59508  32022.000000  0    3033801.810  -3720088.503  -4948857.173
10 0 59508  32142.000000  0    2442245.725  -3319475.108  -5527681.783
10 0 59508  32262.000000  0    1815906.718  -2850586.893  -6009877.813
10 0 59508  32382.000000  0    1166813.335  -2321103.762  -6387109.483
10 0 59508  32502.000000  0     507220.368  -1739947.627  -6652871.071
10 0 59508  32622.000000  0    -150620.366  -1117129.530  -6802588.241
10 0 59508  32742.000000  0    -794682.821   -463578.017  -6833687.221
10 0 59508  32862.000000  0   -1413380.804    209048.869  -6745633.782
10 0 59508  32982.000000  0   -1995771.735    888566.263  -6539940.894
10 0 59508  33102.000000  0   -2531745.549   1562477.470  -6220145.535
10 0 59508  33222.000000  0   -3012197.046   2218198.001  -5791754.736
10 0 59508  33342.000000  0   -3429180.507   2843286.488  -5262161.646
10 0 59508  33462.000000  0   -3776044.357   3425679.636  -4640530.064
10 0 59508  33582.000000  0   -4047542.639   3953926.052  -3937646.328
10 0 59508  33702.000000  0   -4239918.926   4417414.098  -3165741.010
10 0 59508  33822.000000  0   -4350962.105   4806589.695  -2338283.936
10 0 59508  33942.000000  0   -4380033.516   5113158.310  -1469753.212
10 0 59508  34062.000000  0   -4328063.530   5330267.163   -575382.552
10 0 59508  34182.000000  0   -4197515.713   5452662.126    329111.029
10 0 59508  34302.000000  0   -3992318.996   5476812.501   1227809.894
10 0 59508  34422.000000  0   -3717770.677   5401003.786   2104885.484
10 0 59508  34542.000000  0   -3380410.644   5225391.529   2944887.785
10 0 59508  34662.000000  0   -2987869.620   4952016.701   3733025.259
10 0 59508  34782.000000  0   -2548698.330   4584783.815   4455430.068
10 0 59508  34902.000000  0   -2072180.792   4129401.814   5099405.131
10 0 59508  35022.000000  0   -1568136.747   3593288.883   5653647.505
10 0 59508  35142.000000  0   -1046717.196   2985443.990   6108443.894
10 0 59508  35262.000000  0    -518198.770   2316288.491   6455835.199
10 0 59508  35382.000000  0       7218.303   1597482.564   6689748.876
10 0 59508  35502.000000  0     519606.515    841719.072   6806100.131
10 0 59508  35622.000000  0    1009498.078     62497.944   6802857.856
10 0 59508  35742.000000  0    1468058.725   -726113.919   6680078.114
10 0 59508  35862.000000  0    1887246.556  -1509736.290   6439903.900
10 0 59508  35982.000000  0    2259953.291  -2273937.014   6086530.301
10 0 59508  36102.000000  0    2580126.267  -3004498.688   5626136.500
10 0 59508  36222.000000  0    2842868.809  -3687685.429   5066782.984
10 0 59508  36342.000000  0    3044516.529  -4310504.584   4418276.037
10 0 59508  36462.000000  0    3182689.699  -4860959.822   3692000.998
10 0 59508  36582.000000  0    3256319.040  -5328288.954   2900724.305
10 0 59508  36702.000000  0    3265644.762  -5703181.710   2058369.075
10 0 59508  36822.000000  0    3212187.513  -5977971.747   1179766.706
10 0 59508  36942.000000  0    3098693.024  -6146797.018    280390.392
10 0 59508  37062.000000  0    2929052.371  -6205726.490   -623923.720
10 0 59508  37182.000000  0    2708197.715  -6152849.409  -1517265.579
10 0 59508  37302.000000  0    2441976.204  -5988320.896  -2383939.675
10 0 59508  37422.000000  0    2137007.503  -5714367.972  -3208747.455
10 0 59508  37542.000000  0    1800525.806  -5335253.473  -3977259.455
10 0 59508  37662.000000  0    1440212.750  -4857197.900  -4676067.422
10 0 59508  37782.000000  0    1064026.902  -4288265.386  -5293013.546
10 0 59508  37902.000000  0     680032.253  -3638217.366  -5817394.709
10 0 59508  38022.000000  0     296229.338  -2918336.164  -6240138.439
10 0 59508  38142.000000  0     -79607.313  -2141223.329  -6553948.328
10 0 59508  38262.000000  0    -440082.246  -1320576.812  -6753418.738
10 0 59508  38382.000000  0    -778319.811   -470950.819  -6835118.705
10 0 59508  38502.000000  0   -1088090.979    392498.636  -6797644.252
10 0 59508  38622.000000  0   -1363925.108   1254277.301  -6641638.889
10 0 59508  38742.000000  0   -1601204.272   2098823.607  -6369783.702
10 0 59508  38862.000000  0   -1796239.124   2910782.449  -5986756.895
10 0 59508  38982.000000  0   -1946326.471   3675280.705  -5499162.983
10 0 59508  39102.000000  0   -2049786.212   4378198.494  -4915429.738
10 0 59508  39222.000000  0   -2105978.174   5006433.149  -4245674.347
10 0 59508  39342.000000  0   -2115297.388   5548149.639  -3501537.451
10 0 59508  39462.000000  0   -2079147.184   5993011.197  -2695988.719
10 0 59508  39582.000000  0   -1999890.784   6332386.932  -1843106.897
10 0 59508  39702.000000  0   -1880782.848   6559530.678   -957834.863
10 0 59508  39822.000000  0   -1725881.467   6669724.485    -55716.311
10 0 59508  39942.000000  0   -1539942.628   6660386.341    847381.559
10 0 59508  40062.000000  0   -1328299.523   6531135.081   1735558.074
10 0 59508  40182.000000  0   -1096729.005   6283806.370   2593169.811
10 0 59508  40302.000000  0    -851309.774   5922424.683   3405113.444
10 0 59508  40422.000000  0    -598276.287   5453133.224   4157097.252
10 0 59508  40542.000000  0    -343872.139   4884083.079   4835898.100
10 0 59508  40662.000000  0     -94204.395   4225278.856   5429596.338
10 0 59508  40782.000000  0     144895.576   3488393.567   5927780.210
10 0 59508  40902.000000  0     368001.141   2686553.899   6321725.789
10 0 59508  41022.000000  0     570207.957   1834098.969   6604543.517
10 0 59508  41142.000000  0     747237.533    946319.597   6771292.896
10 0 59508  41262.000000  0     895524.702     39181.648   6819062.801
10 0 59508  41382.000000  0    1012287.817   -870959.947   6747019.205
10 0 59508  41502.000000  0    1095580.484  -1767655.842   6556419.878
10 0 59508  41622.000000  0    1144324.110  -2634659.245   6250594.073
10 0 59508  41742.000000  0    1158320.704  -3456221.715   5834888.237
10 0 59508  41862.000000  0    1138244.933  -4217381.649   5316576.152
10 0 59508  41982.000000  0    1085617.700  -4904239.215   4704736.991
10 0 59508  42102.000000  0    1002760.632  -5504216.338   4010103.292
10 0 59508  42222.000000  0     892731.981  -6006297.130   3244876.965
10 0 59508  42342.000000  0     759245.433  -6401240.189   2422515.518
99
